X,Y,objectid,health_facility_name,address,street,landmark,locality,posatalcode,landline_number,facility_type,state_name,district_name,taluka_name,block_name,lat,lon,altitude,,,,
80.277719,13.081089,19202,RAJIVGANDHI GOVT.GENERAL HOSPITAL  MCH,General Hospital Rd,Park Town,Central Railway Station,Central,600003,,Medical Colleges Hospital,Tamil Nadu,Chennai,\N,CHENNAI ZONE XI,13.081089,80.277719,10.02,,,,
80.233987,13.070108,19232,KILPAUK UHP,1,Temple Street,Perumal Kovil,New Avadi Road Kipauk,600010,26600105,Primary Health Centre,Tamil Nadu,Chennai,\N,CHENNAI ZONE VIII,13.070108,80.233987,11.31,,,,
80.275224,13.029925,19234,SANTHOME UHP,14A,"APPU 2nd LANE,Mylapore,Chennai-04.",Santhome IOB,Mylapore,600004,24640230,Primary Health Centre,Tamil Nadu,Chennai,\N,CHENNAI ZONE IX,13.029925,80.275224,9.21,,,,
80.25961,13.01782,19235,NEHRU NAGAR UHP,17,sathyamoorthy nagar,near sathyamoorthy nagar Park,vyasarpadi,600039,26731855,Primary Health Centre,Tamil Nadu,Chennai,\N,CHENNAI ZONE IV,13.01782,80.25961,8.54,,,,
80.245294,13.075499,19236,MANGALAPURAM UHP,U.F.W,"8th Street,Magalapuram",Amma Unavagam,Chetpet,600031,28362021,Primary Health Centre,Tamil Nadu,Chennai,\N,CHENNAI ZONE VIII,13.075499,80.245294,10.08,,,,
80.246436,13.002852,19237,VHS UHP,VHS multispeciality Hospital,Rajiv Gandhi Salai,Madhyakailesh Temple,Tharamani,600113,22542971,Primary Health Centre,Tamil Nadu,Chennai,\N,CHENNAI ZONE XIII,13.002852,80.246436,6.57,,,,
80.262727,13.084864,19239,PERIYAR THIDAL UHP,50,"E.V.K Sampth Salai ,Vepery",Dhina Thanthi Office,EVK Sampath Salai,600007,26618416,Primary Health Centre,Tamil Nadu,Chennai,\N,CHENNAI ZONE V,13.084864,80.262727,11,,,,
80.267338,13.021331,19240,R.A.PURAM UHP,17,R.K nagar IInd Main Road,Near Mandaveli Bus Stand,Mandavelli,600028,24939364,Primary Health Centre,Tamil Nadu,Chennai,\N,CHENNAI ZONE IX,13.021331,80.267338,8.04,,,,
80.238766,13.058033,19241,PUSHPA NAGAR UHP,1,Pushpa Nagar Nain Road,Coroporation Boys school,Nungambakkam,600034,28173701,Primary Health Centre,Tamil Nadu,Chennai,\N,CHENNAI ZONE IX,13.058033,80.238766,12,,,,
80.218052,13.068576,19242,AMINJIKARAI EAST UHP,,Collectrate Colony 6th Street,Ampa Mall,Aminjikarai,600029,23744393,Primary Health Centre,Tamil Nadu,Chennai,\N,CHENNAI ZONE VIII,13.068576,80.218052,12,,,,
80.260202,13.055149,19243,ZAMBAZAR UHP,10,ROB 6th Street,opposite to New college,Royapeetah,600014,,Primary Health Centre,Tamil Nadu,Chennai,\N,CHENNAI ZONE IX,13.055149,80.260202,10.48,,,,
80.266311,13.054097,19244,KRISHNAMPET UHP,55/1,"LLYODS Road, Royapettah,Ch-14",Meceapuram Main Street,Royapeetah,600005,28442821,Primary Health Centre,Tamil Nadu,Chennai,\N,CHENNAI ZONE IX,13.054097,80.266311,10.48,,,,
80.226082,13.058374,19245,VADAPALANI EAST UHP,43833,Trustpuram 10th Cross street,Power House TNEB office,Kodambakkam,600024,24720078,Primary Health Centre,Tamil Nadu,Chennai,\N,CHENNAI ZONE IX,13.058374,80.226082,12,,,,
80.22094,13.0382876,19247,KUMARAN NAGAR NORTH  UHP,1,Govindan Road,Sirinivasa Theatre Near Avanganathan Bridge,West Mambalam,600033,24742132,Primary Health Centre,Tamil Nadu,Chennai,\N,CHENNAI ZONE X,13.0382876,80.22094,12.62,,,,
80.236,13.085762,19248,PANNER SELVAM NAGAR UHP,100,Aspiran Garden,Division Office,Ayanavaram,600023,,Primary Health Centre,Tamil Nadu,Chennai,\N,CHENNAI ZONE III,13.085762,80.236,13.55,,,,
80.21658,13.019903,19249,GUINDY WEST UHP,67,VGP salai,Near Velakanni College,Saidapet,600015,23711989,Primary Health Centre,Tamil Nadu,Chennai,\N,CHENNAI ZONE VIII,13.019903,80.21658,10.81,,,,
80.22478,13.075436,19250,SHENOY NAGAR UHP,43,Pulla Avenue,Pulla Avenue Corporation School,Shenoy nagar,600030,26263240,Primary Health Centre,Tamil Nadu,Chennai,\N,CHENNAI ZONE VIII,13.075436,80.22478,13.52,,,,
80.275981,13.063871,19253,GOVERNMENT KGH  UHP,24,Arunachalam STreet,Adam Market,Chepauk,600005,28413539,Primary Health Centre,Tamil Nadu,Chennai,\N,CHENNAI ZONE IX,13.063871,80.275981,11.36,,,,
80.266062,13.07026,19254,GOVERNMENT WOMEN AND CHILREN UHP,22,Langs Garden Street chennai-13,Near Chitra Theatre,Pudupet,600002,28419623,Primary Health Centre,Tamil Nadu,Chennai,\N,CHENNAI ZONE XI,13.07026,80.266062,8.99,,,,
80.234277,13.030169,19255,VOC NAGAR UHP,54,4th Main Road,Nandham Masuthi,C.I.T Nagar,600035,24350701,Primary Health Centre,Tamil Nadu,Chennai,\N,CHENNAI ZONE X,13.030169,80.234277,8.35,,,,
80.220911,13.078632,19257,GOVERNMENT KMC HOSPITAL UHP,Bharathipuram,4th street,GYM School,SHenoy Nagar,600030,,Primary Health Centre,Tamil Nadu,Chennai,\N,CHENNAI ZONE VIII,13.078632,80.220911,8.96,,,,
80.109955,13.030502,19607,MANGADU UPHC,11,KUNDRATHUR MAIN ROAD,,,602101,044-26493526,Primary Health Centre,Tamil Nadu,Kancheepuram,Sriperumbudur,Kundrathur,13.030502,80.109955,23,,,,
80.127594,12.924263,19656,POONDI BAZAAR UHP,PHC POONDI BAZAAR,,,,600059,,Primary Health Centre,Tamil Nadu,Kancheepuram,Tambaram,TAMBARAM MPTY,12.924263,80.127594,33.5787,,,,
80.142167,12.988495,19662,Polichalur,PHC Polichalur,,,,600074,,Primary Health Centre,Tamil Nadu,Kancheepuram,Sholinganallur ,St. Thomas Mount CANTT,12.988495,80.142167,17.8741,,,,
80.128786,12.983041,19666,ANUKAPUTHUR,PHC Anagaputhur,,,,600070,044-22486610,Primary Health Centre,Tamil Nadu,Kancheepuram,Sholinganallur ,St. Thomas Mount CANTT,12.983041,80.128786,18.9921,,,,
80.1347,12.8401,19677,OTHIVAKKAM,,,,,603108,,Primary Health Centre,Tamil Nadu,Kancheepuram,Chengalpattu,Kattankolathur,12.8401,80.1347,28.7292,,,,
80.112054,12.924554,19685,WEST TAMBARAM UHP,WEST TAMBARAM  HP,,,WEST TAMBARAM,600045,,Primary Health Centre,Tamil Nadu,Kancheepuram,Tambaram,TAMBARAM MPTY,12.924554,80.112054,30.3692,,,,
80.196373,13.052033,19795,VIRUGAMBAKKAM   I  UHP,1,"Kamarajar Street ,Division Office",Achi School,Virugambakkam,600092,24794484,Primary Health Centre,Tamil Nadu,Chennai,\N,CHENNAI ZONE X,13.052033,80.196373,13.77,,,,
80.209531,12.874965,19796,Semmancheri PHC,Semmancheri,,,Semmancheri,600119,,Primary Health Centre,Tamil Nadu,Kancheepuram,Sholinganallur ,St. Thomas Mount CANTT,12.874965,80.209531,3.277,,,,
80.190472,13.101198,19801,PADI,5,Church Street,Britania Company Back Side,TMP Nagar,600050,,Primary Health Centre,Tamil Nadu,Chennai,\N,CHENNAI ZONE VII,13.101198,80.190472,16.33,,,,
80.200147,13.100923,19809,VILLIWAKKAM I UHP,1,"Agathiyar Nagar , Venugopal Street",Underground Bridge,villivakkam,600049,26500271,Primary Health Centre,Tamil Nadu,Chennai,\N,CHENNAI ZONE VIII,13.100923,80.200147,12.16,,,,
80.202282,13.037377,19813,ASHOK  NAGAR  UHP,12420,35th Street,Pudur School,Ashok Nagar,600083,23712568,Primary Health Centre,Tamil Nadu,Chennai,\N,CHENNAI ZONE X,13.037377,80.202282,13.43,,,,
80.208328,13.027843,19821,KODAMBAKKAM  UHP,1,Ayyavoo 4th Street,Kasi Theatre,Jafferkhanpet,600083,24710210,Primary Health Centre,Tamil Nadu,Chennai,\N,CHENNAI ZONE X,13.027843,80.208328,9.23,,,,
80.213208,13.050239,19822,VADAPALANI  WEST UHP,1,Rajangam Mathya veethi,Vadapalani Bus Stand,Vadapalani,600026,23621865,Primary Health Centre,Tamil Nadu,Chennai,\N,CHENNAI ZONE X,13.050239,80.213208,14,,,,
80.21228,13.037377,19823,M G R NAGAR  UHP,1,62nd Street,Mahalir Police Station,Ashok Nagar,600083,23712451,Primary Health Centre,Tamil Nadu,Chennai,\N,CHENNAI ZONE X,13.037377,80.21228,13.43,,,,
80.180797,13.081312,19825,MUGAPAIR UHP,1,TVS COlony 1st main road,Chennai Public School,Mugappair East,600101,,Primary Health Centre,Tamil Nadu,Chennai,\N,CHENNAI ZONE VII,13.081312,80.180797,15.04,,,,
80.204941,13.109045,19832,KOLATHUR UHP,3,Srinivasa Nagar 3rd Main road,Don Bosco school,Kolathur-chennai 99,600099,26500651,Primary Health Centre,Tamil Nadu,Chennai,\N,CHENNAI ZONE VI,13.109045,80.204941,13.57,,,,
80.205061,13.003488,19834,ALANDUR UHP,56,Sowri Street,Near RTO office,Alandhur,600016,22320096,Primary Health Centre,Tamil Nadu,Chennai,\N,CHENNAI ZONE XII,13.003488,80.205061,14,,,,
80.203353,12.993604,19843,ADAMBAKKAM UHP,1,"Mannadiamman Koil Street,",Dr. Ambethkar Statue near,Adambakkam,600088,044-22248060,Primary Health Centre,Tamil Nadu,Chennai,\N,CHENNAI ZONE XII,12.993604,80.203353,11.17,,,,
80.205297,12.988983,19844,ADARSH  VELACHERY II UHP,4,"Sasthri Nagar 4th Street ,Adambakkam Chennai-88",Kakkan Bridge,Adambakkam,600088,,Primary Health Centre,Tamil Nadu,Chennai,\N,CHENNAI ZONE XIII,12.988983,80.205297,6.8,,,,
80.127861,12.974758,19920,Pammal,Pammal PHC,,,Pammal,,,Primary Health Centre,Tamil Nadu,Kancheepuram,Sholinganallur ,St. Thomas Mount CANTT,12.974758,80.127861,23.612,,,,
80.115179,12.961267,19923,Thiruneermalai,Thiruneermalai PHC,,,Thiruneermalai,,,Primary Health Centre,Tamil Nadu,Kancheepuram,Sholinganallur ,St. Thomas Mount CANTT,12.961267,80.115179,21.0601,,,,
80.134969,12.944917,19924,TAMBARAM,No 17,GST Road,NEAR MIT GATE BUS STOP,Chrompet,600045,44-22382400,Sub-District Hospital,Tamil Nadu,Kancheepuram,Sriperumbudur,Kundrathur,12.944917,80.134969,25.9964,,,,
80.122929,13.078858,19927,Thiruverkadu Urban PHC,No.7,Sivan Koil Street,Near SBI Bank,Thiruverkadu,600077,4426800437,Primary Health Centre,Tamil Nadu,Thiruvallur,Ambattur,Villivakkam,13.078858,80.122929,17.99,,,,
80.156486,13.119652,19958,VENKATAPURAM,1,KVK Swamy Street,Thulukathamman Koil,Siddhu Oragadam,600053,,Primary Health Centre,Tamil Nadu,Chennai,\N,CHENNAI ZONE VII,13.119652,80.156486,27,,,,
80.15228,13.114239,19960,VARADARAJAPURAM UHP,3,Railway Station Road,Canara Bank,Varadharajapuram,600050,,Primary Health Centre,Tamil Nadu,Chennai,\N,CHENNAI ZONE VII,13.114239,80.15228,22.78,,,,
80.116693,12.931167,19968,SUNDARAM COLONY UHP,SUNDARAM COLONY   HP,,,SUNDARAM COLONY,600059,,Primary Health Centre,Tamil Nadu,Kancheepuram,Tambaram,TAMBARAM MPTY,12.931167,80.116693,33.8508,,,,
80.148166,13.121606,19979,ORAGADAM,26,Gandhi High Road,Ambedkhar statue,oragadam,600050,,Primary Health Centre,Tamil Nadu,Chennai,\N,CHENNAI ZONE VII,13.121606,80.148166,28.33,,,,
80.14467,12.89093,19982,PADUVANCHERI,Paduvanchery PHC,,,Paduvanchery,600073,,Primary Health Centre,Tamil Nadu,Kancheepuram,Sholinganallur ,St. Thomas Mount CANTT,12.89093,80.14467,16.087,,,,
79.951,12.5913,20058,Padalam,,,,,603308,044-27598247,Primary Health Centre,Tamil Nadu,Kancheepuram,Maduranthakam,Maduranthakam MPTY,12.5913,79.951,27.39,,,,
80.1663,13.0208,20067,MUGALIVAKKAM,7,SCHOOL  STREET,,,600116,044-22523061,Primary Health Centre,Tamil Nadu,Kancheepuram,Sriperumbudur,Kundrathur,13.0208,80.1663,14.16,,,,
80.1863,12.9706,20096,Moovarasampet,PHC Moovarasampet,,,,600091,044-22246644,Primary Health Centre,Tamil Nadu,Kancheepuram,Sholinganallur ,St. Thomas Mount CANTT,12.9706,80.1863,14.4835,,,,
80.181062,13.115678,20116,KORATTUR UHP,,"32nd street,TNHB",Bakthavatchalam College backside,Korattur,600050,,Primary Health Centre,Tamil Nadu,Chennai,\N,CHENNAI ZONE VII,13.115678,80.181062,14.08,,,,
80.153316,12.967232,20120,PALLAVARAM UHP,PALLAVARAM HP,,,PALLAVARAM,600043,,Primary Health Centre,Tamil Nadu,Kancheepuram,Sriperumbudur,PALLAVARAM MPTY,12.967232,80.153316,26.7328,,,,
80.183325,12.958889,20134,KEELKATTALAI UHP,KEELKATTALAI,,,,600117,,Primary Health Centre,Tamil Nadu,Kancheepuram,Sriperumbudur,PALLAVARAM MPTY,12.958889,80.183325,10.3918,,,,
80.303681,13.167947,23749,GOVT PERIPHERAL HL  PERIYAR NAGAR MCH ATT,"Govt.Peripheral Hospital, Periyar Nagar",Jaganadhan Salai,Shiva Vishnu Koil,Periyar Nagar,600082,,Medical Colleges Hospital,Tamil Nadu,Chennai,\N,CHENNAI ZONE XI,13.167947,80.303681,9.22,,,,
80.28712,13.122638,23750,GOVT PERIPHERAL HL TONDIARPETTAI,"Govt.Peripheral Hospital, Tondiarpet",Kailasam St,New Washermenpet,Tondiarpet,600081,,Medical Colleges Hospital,Tamil Nadu,Chennai,\N,CHENNAI ZONE XI,13.122638,80.28712,10.19,,,,
80.2867034,13.105014,23751,GOVT. STANLEY HOSP MCH,305,OSH Road,Mint,Royapuram,600001,,Medical Colleges Hospital,Tamil Nadu,Chennai,\N,CHENNAI ZONE XI,13.105014,80.2867034,9.58,,,,
80.2888,13.1084289,23752,GOVT RSRM HOSPITAL MCH ATT,"Govt.RSRM hospital, Royapuram",Cemetery Road,GA Road,Royapuram,600013,,Medical Colleges Hospital,Tamil Nadu,Chennai,\N,CHENNAI ZONE XI,13.1084289,80.2888,10.51,,,,
80.243,13.1634,23754,Madhavaram,"Government Hospital, Madhavaram",Milk Colony,Madhavaram,Manjambakkam,600051,,Sub-District Hospital,Tamil Nadu,Thiruvallur,Mathavaram,Madhavaram,13.1634,80.243,7.752,,,,
80.2908116,13.1264639,23755,Thiruvottriyur,"Government Hospital, Thiruvottriyur","Main Raod,",Thiruvottriyur,Thodaiyarpet,600019,,Sub-District Hospital,Tamil Nadu,Thiruvallur,Mathavaram,\N,13.1264639,80.2908116,10.325,,,,
80.29358,13.118197,23765,TONDIARPET UHP,"Dispensery,Housing Board",Poondithangamal Street,N-4 Beach fisherman colony,New washermanpet,600081,,Primary Health Centre,Tamil Nadu,Chennai,\N,CHENNAI ZONE IV,13.118197,80.29358,9.93,,,,
80.233026,13.121087,23766,AGARAM NORTH UHP,1,Pallavan Salai,Near TVK Bus stand,TVK Nagar,600082,,Primary Health Centre,Tamil Nadu,Chennai,\N,CHENNAI ZONE VI,13.121087,80.233026,9.62,,,,
80.261771,13.124752,23770,VYASARPADI NORTH UHP,155,14th east cross Street,M.K.B Nagar Bus Stand,vyasarpadi,600039,26733449,Primary Health Centre,Tamil Nadu,Chennai,\N,CHENNAI ZONE IV,13.124752,80.261771,6.49,,,,
80.275232,13.092705,23772,P.K.GARDEN UHP,44,"Waltex Road,Ch-79",Near Thirupalli Street Bus Stand,Walltax Road,600079,25291105,Primary Health Centre,Tamil Nadu,Chennai,\N,CHENNAI ZONE V,13.092705,80.275232,8.1,,,,
80.257241,13.094844,23773,C.S.NAGAR UHP,1,"Sachithanandam street, Kosapet",DOBYCANA,Pattalam,600012,26621689,Primary Health Centre,Tamil Nadu,Chennai,\N,CHENNAI ZONE VI,13.094844,80.257241,6,,,,
80.279936,13.12397,23776,KORUKKUPET UHP,15,Amman Koil Strret,Vaithiyanadhan Bridge,Korrukupet,600021,25920068,Primary Health Centre,Tamil Nadu,Chennai,\N,CHENNAI ZONE IV,13.12397,80.279936,4.39,,,,
80.252928,13.104708,23777,WADIA NAGAR UHP,57,cooks road,Near CMS Cooks road,Meetupalayam,600012,26621252,Primary Health Centre,Tamil Nadu,Chennai,\N,CHENNAI ZONE VI,13.104708,80.252928,6.19,,,,
80.277429,13.103057,23780,IRCH UHP,10,"Nainiappan Street,chindhadirpet","Near Fish Market ,Chindhadhirpet",Chindhadhirpet,600002,2853111,Primary Health Centre,Tamil Nadu,Chennai,\N,CHENNAI ZONE V,13.103057,80.277429,10.63,,,,
80.25961,13.111157,23781,ELANGO NAGAR UHP,18,Dr.Ambedhkar College road,Jeeva Railway station,Vysarpadi,600039,25515342,Primary Health Centre,Tamil Nadu,Chennai,\N,CHENNAI ZONE IV,13.111157,80.25961,5.54,,,,
80.253581,13.1333931,23783,KODUNGAIYUR  II  UHP,39,Appar street,Vivekanandha Nagar Near Electricity Board,Kodungaiyur,600118,25541933,Primary Health Centre,Tamil Nadu,Chennai,\N,CHENNAI ZONE IV,13.1333931,80.253581,6.08,,,,
80.30242,13.180083,23785,KUPPAM,1,Jothi Nagar,Corporation Primary School,Wimco Nagar,600019,25740058,Primary Health Centre,Tamil Nadu,Chennai,\N,CHENNAI ZONE I,13.180083,80.30242,6.55,,,,
80.25217,13.087912,23787,PURASAIWALKAM UHP,16,Rathnasabapathy Street,Appostlics Church,Purasaiwalkaam,600007,,Primary Health Centre,Tamil Nadu,Chennai,\N,CHENNAI ZONE VI,13.087912,80.25217,8.15,,,,
80.242537,13.089878,23788,AMBAL UHP,54,"chellapa Street ,Otteri",Sir Varsha School PVT,Ottery,600012,25324818,Primary Health Centre,Tamil Nadu,Chennai,\N,CHENNAI ZONE VI,13.089878,80.242537,12.48,,,,
80.295112,13.15298,23791,SATHANKADU UHP,9A,Balakrishna Naidu Colony,Odiyamani Theatre,Sathangadu,600019,25990521,Primary Health Centre,Tamil Nadu,Chennai,\N,CHENNAI ZONE I,13.15298,80.295112,8.26,,,,
80.251368,13.097202,23792,MARAI MALAI ADIGAL NAGAR UHP,46,"Subburaya 2nd Street ,Nammalvarpet",AO Office,Ottery,600012,264450290,Primary Health Centre,Tamil Nadu,Chennai,\N,CHENNAI ZONE VI,13.097202,80.251368,6.61,,,,
80.230529,13.101262,23794,NAGAMMIYAR NAGAR SOUTH UHP,1,Officer&#39;s Colony,Aynavaram Post Office,Ayanavaram,600023,,Primary Health Centre,Tamil Nadu,Chennai,\N,CHENNAI ZONE VIII,13.101262,80.230529,12.34,,,,
80.277455,13.138178,23795,Dr R K NAGAR NORTH UHP,140,Anna Sandhiya Nagar 1st Street,Indian Oil Corporation,Tondiyarpet,600081,25920094,Primary Health Centre,Tamil Nadu,Chennai,\N,CHENNAI ZONE IV,13.138178,80.277455,4.11,,,,
80.238165,13.101072,23796,NAGAMMAIAR NAGAR NORTH UHP,43,Vasantha Garden main Street,Near Iyyappan Temple,Ayanavaram,600023,,Primary Health Centre,Tamil Nadu,Chennai,\N,CHENNAI ZONE VI,13.101072,80.238165,10.75,,,,
80.256991,13.088554,23800,PERUMALPET UHP,30,"Kariappan Street,CHennai-7",Opposite to Sravana Store,Kariappa Street,600007,26422106,Primary Health Centre,Tamil Nadu,Chennai,\N,CHENNAI ZONE V,13.088554,80.256991,11,,,,
80.231665,13.116018,23802,SIRUVALLUR UHP,12,Kabilar Street,Near Brindha Theatre,Perambur,600011,25584738,Primary Health Centre,Tamil Nadu,Chennai,\N,CHENNAI ZONE VI,13.116018,80.231665,11.93,,,,
80.238583,13.111619,23803,SEMBIUM UHP,238,Paper mills road,Mirsha Husain Park,Sembium,600011,25571606,Primary Health Centre,Tamil Nadu,Chennai,\N,CHENNAI ZONE VI,13.111619,80.238583,11.82,,,,
80.229691,13.147193,23804,MADHAVARAM,47,Swamy Nagar,Back side to Z0ne III circle office,Madhavaram,600060,044-25530347,Primary Health Centre,Tamil Nadu,Chennai,\N,CHENNAI ZONE III,13.147193,80.229691,11.96,,,,
80.259205,13.125094,23805,PERAMBUR UHP,66,S.A.Colony 8th Street,opp.to ABR Kalyanamandabam,Vyasarpadi,600039,26722389,Primary Health Centre,Tamil Nadu,Chennai,\N,CHENNAI ZONE IV,13.125094,80.259205,6.49,,,,
80.309583,13.1691914,23807,NEW WASHERMENPET UHP,4,Cheriyan Nagar 4th street,Thiruvottiyur Tolgate,New Washermanpet,600081,25911315,Primary Health Centre,Tamil Nadu,Chennai,\N,CHENNAI ZONE IV,13.1691914,80.309583,3.44,,,,
80.288458,13.124556,23809,JEEVA NAGAR SOUTH UHP,602,"Thiruvottriyur High Road,",Zone 4 Zonal Office,Tondiarpet,600081,25983969,Primary Health Centre,Tamil Nadu,Chennai,\N,CHENNAI ZONE IV,13.124556,80.288458,9.61,,,,
80.3045793,13.1691914,23810,AMS II UHP,44186,Rosary Church Road,Santhome Church,Mylapore,600004,24642566,Primary Health Centre,Tamil Nadu,Chennai,\N,CHENNAI ZONE IX,13.1691914,80.3045793,9,,,,
80.043,12.9544,37153,SOMANGALAM,7,SCHOOL CROSS STREET,,,602109,044-27178266,Primary Health Centre,Tamil Nadu,Kancheepuram,Sriperumbudur,Kundrathur,12.9544,80.043,32.78,,,,
80.051356,12.872455,37155,Athanur,Primary Health Centre,Papanasam,,Athanur,612301,,Primary Health Centre,Tamil Nadu,Thanjavur,Papanasam,Papanasam,12.872455,80.051356,23.15,,,,
80.043,12.9544,37174,Somangalam,5,MAIN ROAD,,,602109,044-27178266,Primary Health Centre,Tamil Nadu,Kancheepuram,Sriperumbudur,\N,12.9544,80.043,32.41,,,,
80.056086,13.05634,37198,THIRUMALAZHISAI UPHC,No.164,TH Road,Near Bus Stand,Thirumazhisai,600124,443200155,Primary Health Centre,Tamil Nadu,Thiruvallur,Poonamallee,Poonamallee MPTY,13.05634,80.056086,25.94,,,,
80.0138,12.7128,37265,Kunnavakkam,\N,\N,,,603002,,Primary Health Centre,Tamil Nadu,Kancheepuram,Chengalpattu,Kattankolathur,12.7128,80.0138,48.8065,,,,
80.0326,12.7911,37279,Maraimalainagar,\N,\N,,,603209,,Primary Health Centre,Tamil Nadu,Kancheepuram,Chengalpattu,Kattankolathur,12.7911,80.0326,52.9575,,,,
80.0995,13.0502,37763,Poonamallee,Primary Health Centre,Ezhil nagar,Oppt Blind School,Poonamallee,600056,044 26492049,Primary Health Centre,Tamil Nadu,Thiruvallur,Poonamallee,Poonamallee MPTY,13.0502,80.0995,24.86,,,,
80.083819,13.078768,37778,Vilinjiampakkam UHP,Urban Primary Health Centre,Kamaraj nagar Main road,Oppt Girls Hr. Sec School,VILINGIYAMBAKKAM,600054,,Primary Health Centre,Tamil Nadu,Thiruvallur,Poonamallee,AVADI MPTY,13.078768,80.083819,31.06,,,,
80.0968,12.9054,37782,Peerkankaranai,PHC Peerkankaranai,,,,600063,,Primary Health Centre,Tamil Nadu,Kancheepuram,Sholinganallur ,St. Thomas Mount CANTT,12.9054,80.0968,26.149,,,,
80.099442,13.05069,37787,POONAMALLEE,Govt Taluk Hospital,Trunk road,Poonamallee Bus Stand,Poonamallee,600056,044-26490361,Sub-District Hospital,Tamil Nadu,Thiruvallur,Poonamallee,Poonamallee MPTY,13.05069,80.099442,24.862,,,,
80.083819,13.078768,37791,Paruthipattu UHP,No.2,Pillaiyar Kovil St,oppt. Chinamman Kovil,PARUTHIPATTU,600054,,Primary Health Centre,Tamil Nadu,Thiruvallur,Poonamallee,AVADI MPTY,13.078768,80.083819,29.89,,,,
80.062757,13.091773,38236,SORANCHERRY,Primary Health Centre,Eswaran Kovil St,Soranchery,Poonamallee,600062,4426850068,Primary Health Centre,Tamil Nadu,Thiruvallur,Poonamallee,Poonamallee MPTY,13.091773,80.062757,25.25,,,,
79.907752,12.550002,39091,GNANAGIRISVARANPETTA,,,,,603303,044-27598248,Primary Health Centre,Tamil Nadu,Kancheepuram,Maduranthakam,Maduranthakam MPTY,12.550002,79.907752,36.2,,,,
79.884935,12.510217,39343,MADHURANTHAGAM,5,Hospital Road,,,603306,4427552441,Sub-District Hospital,Tamil Nadu,Kancheepuram,Maduranthakam,Maduranthakam MPTY,12.510217,79.884935,32.44,,,,
79.865456,12.511372,41406,MADURANTAGAM,MADURANTAGAM,,,MADURANTAGAM,,,Primary Health Centre,Tamil Nadu,Kancheepuram,Maduranthakam,Maduranthakam MPTY,12.511372,79.865456,33.99,,,,
80.001403,12.761542,42668,Singaperumalkoil,\N,\N,,,603204,,Primary Health Centre,Tamil Nadu,Kancheepuram,Chengalpattu,Kattankolathur,12.761542,80.001403,46.6603,,,,
79.977658,12.669947,43007,CHENGALPATTU MEDL COLL HOSP,CHENGALPATTU MEDL COLL HOSP,"GST Road,",Bus stop,CHENGALPATTU MEDL COLL HOSP,603002,,Medical Colleges Hospital,Tamil Nadu,Kancheepuram,Chengalpattu,CHENGALPATTU MPTY,12.669947,79.977658,48,,,,
79.9753094,12.6846906,43017,CHENGALPATTU UPHC,19-Oct,OLD GST ROAD,,"ANUMANTHAPUTHERI, CHENGALPATTU",603001,044-27431080,Primary Health Centre,Tamil Nadu,Kancheepuram,Chengalpattu,CHENGALPATTU MPTY,12.6846906,79.9753094,51.5497,,,,
80.2589269,13.0712995,46472,ICH HOSPITAL FOR CHILDREN MCH ATT,Institute of Child Health Hospital for Children,Tamil Salai,Railway Station,Egmore,600008,,Medical Colleges Hospital,Tamil Nadu,Chennai,\N,CHENNAI ZONE XI,13.0712995,80.2589269,10.75,,,,
80.275625,13.06075,46473,INST OF SOCIAL OBST AND GOVT KASTHURBA GANDHI HOSPITAL,Govt.Kasturba Gandhi Hospital,Victoria Hostel Rd,Beach,Triplicane,600005,,Medical Colleges Hospital,Tamil Nadu,Chennai,\N,CHENNAI ZONE XI,13.06075,80.275625,10,,,,
80.2592506,13.074103,46474,IOG HL FOR WOMEN AND CHILDREN MCH ATT,Institute of Obstetrics and Gynecology for Women,Police Commisioners Rd,Pantheon Road,Egmore,600008,,Medical Colleges Hospital,Tamil Nadu,Chennai,\N,CHENNAI ZONE XI,13.074103,80.2592506,9.92,,,,
80.277994,13.051163,46486,TRIPLICANE UHP,3,Dr.Bescent Road,Near V.House Bus Stop,ICCE Hpuse,600005,28442466,Primary Health Centre,Tamil Nadu,Chennai,\N,CHENNAI ZONE IX,13.051163,80.277994,9.87,,,,
80.259499,12.983029,46487,THIRUVANMIYUR  UHP,8,east street Kamaraj Nagar,Near sangara School,thiruvanmiyur,600041,24571148,Primary Health Centre,Tamil Nadu,Chennai,\N,CHENNAI ZONE XIII,12.983029,80.259499,6.73,,,,
80.261916,13.051751,46489,ROYAPETTAH UHP,36,ammaiappan Lane,ROyapettah Police Station,Royapettah,600014,28350416,Primary Health Centre,Tamil Nadu,Chennai,\N,CHENNAI ZONE IX,13.051751,80.261916,9,,,,
80.263463,13.098648,46491,BESANT NAGAR UHP,K.P Park,Demellows Road,KP Park Housing Board,Pulianthope,600012,,Primary Health Centre,Tamil Nadu,Chennai,\N,CHENNAI ZONE VI,13.098648,80.263463,7.51,,,,
80.286445,13.096239,46493,B.R.N.GARDEN UHP,225,Broadway road,Near Bharathi Arts college,BRN Garden,600001,25284022,Primary Health Centre,Tamil Nadu,Chennai,\N,CHENNAI ZONE V,13.096239,80.286445,8.48,,,,
80.2707184,13.0826802,46494,KANAMAPET UHP,"1,Hospital Road",Hospital Road,Near Vasanth & Co Office Back Side,T.Nagar,600017,24314785,Primary Health Centre,Tamil Nadu,Chennai,\N,CHENNAI ZONE XIII,13.0826802,80.2707184,9.26,,,,
80.294607,13.102351,46496,HARBOUR UHP,1,"4th Lane Beach Road,",Opposite to Clive Battery Bridge,4th Lane BEach Road,600001,25251491,Primary Health Centre,Tamil Nadu,Chennai,\N,CHENNAI ZONE V,13.102351,80.294607,4.15,,,,
80.285857,13.097991,46497,AMMAN KOIL SOUTH UHP,8,Appu Maistry Street,,Broadway,600001,25232385,Primary Health Centre,Tamil Nadu,Chennai,\N,CHENNAI ZONE V,13.097991,80.285857,7.66,,,,
80.287174,13.130816,46498,JEEVA NAGAR NORTH   UHP,1,Cellliamman Koil Street,Tondiyarpet Bus Terminus,Tondiyarpet,600081,25960006,Primary Health Centre,Tamil Nadu,Chennai,\N,CHENNAI ZONE IV,13.130816,80.287174,8.14,,,,
80.264922,13.091437,46501,CHOOLAI UHP,23,Vijaya Vigneswara Koil Street,Near Choolai Bus Stand,Choolai,600112,26690817,Primary Health Centre,Tamil Nadu,Chennai,\N,CHENNAI ZONE VI,13.091437,80.264922,8,,,,
80.274767,13.104091,46502,KONDITHOPE UHP,60,"Basin Bridge Road,Kondithope",Near New Mint Bus Stand,Kondithope,600021,25203004,Primary Health Centre,Tamil Nadu,Chennai,\N,CHENNAI ZONE V,13.104091,80.274767,5.4,,,,
80.301125,13.157574,46503,THIRUVOTTIYUR  UHP,185,Thiruvotriyur High Road,Thiruvottiyur GH,Thiruvottiyur,600019,25990185,Primary Health Centre,Tamil Nadu,Chennai,\N,CHENNAI ZONE I,13.157574,80.301125,9.36,,,,
80.256948,13.035226,46505,BEEMANNANPET UHP,31,"C.P ramaswami Road ,Alwarpet ,ch-18",Community Hall,Abiramapuram,600018,24994249,Primary Health Centre,Tamil Nadu,Chennai,\N,CHENNAI ZONE IX,13.035226,80.256948,12.08,,,,
80.283589,13.111763,46506,GOVERNMENT RSRM HOSPITAL UHP,32,"East Cementry Road,CH-21",Near Virax Textile,East Cementry Road,600021,,Primary Health Centre,Tamil Nadu,Chennai,\N,CHENNAI ZONE XI,13.111763,80.283589,9.23,,,,
80.281745,13.112895,46508,Dr.V.R.NAGAR UHP,471,Thiruvottiyur High ROad,Pandian Theatre,Old Washermanpet,600081,25951208,Primary Health Centre,Tamil Nadu,Chennai,\N,CHENNAI ZONE IV,13.112895,80.281745,8.94,,,,
80.274019,13.051793,46510,MIRSH AIBPET UHP,6,"Muthiya Main street,",LLoyds colony,DR.Nadesan Road,600014,,Primary Health Centre,Tamil Nadu,Chennai,\N,CHENNAI ZONE IX,13.051793,80.274019,9,,,,
80.295556,13.136864,46512,GRACE GARDEN UHP,152,"Venkatasan street, ch-13",near fire service,Royapuram,600013,25958144,Primary Health Centre,Tamil Nadu,Chennai,\N,CHENNAI ZONE V,13.136864,80.295556,9.49,,,,
80.281027,13.098317,46513,SEVEN WELLS  HP,69,"Amman Koil Street,Chennai-1",Near seven wells police station,Seven wells,600001,25232949,Primary Health Centre,Tamil Nadu,Chennai,\N,CHENNAI ZONE V,13.098317,80.281027,11.84,,,,
80.2579061,13.1686784,46515,Manali,Primary Health Centre,Pallikudam street,Near by Church and panchayat office,Manali,600068,,Primary Health Centre,Tamil Nadu,Thiruvallur,Mathavaram,Madhavaram,13.1686784,80.2579061,8.769,,,,
80.261699,13.001233,46517,ADYAR UHP,1st avenue Besant Nagar,1st Avenue,Near Bus stop Besant nagar Terminus,Besant Nagar,600090,24452247,Primary Health Centre,Tamil Nadu,Chennai,\N,CHENNAI ZONE XIII,13.001233,80.261699,11.66,,,,
80.272426,13.08268,46519,Dr.R.K.NAGAR SOUTH UHP,48,old Glass factory road,Near Railway over Bridge Korrukupet,Korrukupet,600021,25920032,Primary Health Centre,Tamil Nadu,Chennai,\N,CHENNAI ZONE IV,13.08268,80.272426,9.26,,,,
80.302136,13.151732,46520,THANGAL UHP,76,Malligapuram,"Corporation High School, Market Lane,Kaladipet",Kaladipet,600019,25990437,Primary Health Centre,Tamil Nadu,Chennai,\N,CHENNAI ZONE I,13.151732,80.302136,7.31,,,,
80.266142,13.117568,46521,SANJEEVARAYANPET UHP,194,Solaiappar Street,Near old washermanpet post office,Royapuram,600021,25951219,Primary Health Centre,Tamil Nadu,Chennai,\N,CHENNAI ZONE V,13.117568,80.266142,6.11,,,,
80.267647,13.100391,46522,PULIANTHOPE UHP,40,Thiruvenganda sami Street,Near G3 Police Station,Pulianthope,600012,26670100,Primary Health Centre,Tamil Nadu,Chennai,\N,CHENNAI ZONE VI,13.100391,80.267647,4.8,,,,
80.242648,13.07727,47372,GOVT KILPAUK MEDICAL COLL HOSPITAL MCH,822,Poonamallee High Road,Near Ega Theatre,,600010,,Medical Colleges Hospital,Tamil Nadu,Chennai,\N,CHENNAI ZONE XI,13.07727,80.242648,12.42,,,,
80.219,13.095,47373,GOVT PERIPHERAL HOSPITAL  ANNA NAGAR,"Govt.Peripheral Hospital, Anna Nagar",3rd Avenue,Kilpauk,Kilpauk,600102,,Medical Colleges Hospital,Tamil Nadu,Chennai,\N,CHENNAI ZONE XI,13.095,80.219,11,,,,
80.20916,13.035,47374,GOVT PERIPHERAL HL KK NAGAR MCH ATT,"Govt.Peripheral Hospital, K K Nagar",Anna Main Road,Bharathidasan Colony,"ESI Hospital, KK Nagar",600078,,Medical Colleges Hospital,Tamil Nadu,Chennai,\N,CHENNAI ZONE XI,13.035,80.20916,14,,,,
80.2194984,13.0223602,47407,SAIDAPET,SAIDAPET SDH,,,SAIDAPET,600015,,Sub-District Hospital,Tamil Nadu,Kancheepuram,\N,\N,13.0223602,80.2194984,13.11,,,,
80.214202,13.066511,47408,M.M.D.A.COLONY UHP,21/63,"D Block, Pandian Street",MMDA Post Office,Arumbakkam,600106,23630831,Primary Health Centre,Tamil Nadu,Chennai,\N,CHENNAI ZONE VIII,13.066511,80.214202,13.08,,,,
80.251895,13.053494,47415,THOUSAND LIGHT  UHP,82,Azismulk 2nd street,Near Blue star,Thousand light,600006,28293442,Primary Health Centre,Tamil Nadu,Chennai,\N,CHENNAI ZONE IX,13.053494,80.251895,13.72,,,,
80.19416,13.066938,47417,VIRUGAMBAKKAM   II  UHP,44,"Natesa Nagar,5th Main Road",Koyambedu Market,Virugambakkam,600092,24794474,Primary Health Centre,Tamil Nadu,Chennai,\N,CHENNAI ZONE X,13.066938,80.19416,12.92,,,,
80.230404,13.0697,47420,AMINJIKARAI WEST UHP,1,Pillyar Koil Street,Naduvankarai Canal,Anna Nagar,600040,26222205,Primary Health Centre,Tamil Nadu,Chennai,\N,CHENNAI ZONE VIII,13.0697,80.230404,11,,,,
80.2336924,13.0405026,47421,T NAGAR  UHP,1,Siva Gnanam Street,Post Office Pondy Bazzar,T.Nagar,600017,24320535,Primary Health Centre,Tamil Nadu,Chennai,\N,CHENNAI ZONE X,13.0405026,80.2336924,12.69,,,,
80.253581,13.13931,47424,KODUNGAIYUR I UHP,15,anna salai,moolakadai,Kodungaiyur,600118,25370086,Primary Health Centre,Tamil Nadu,Chennai,\N,CHENNAI ZONE IV,13.13931,80.253581,5.49,,,,
80.252016,13.041456,47426,TEYNAMPET UHP,40,KB Dhasan Salai,Near SIET College,Teynampet,600018,24364298,Primary Health Centre,Tamil Nadu,Chennai,\N,CHENNAI ZONE IX,13.041456,80.252016,12.06,,,,
80.251308,12.989865,47427,SRKV UHP,143,LB Road,Opposite to S2,thiruvanmiyur,600041,24452479,Primary Health Centre,Tamil Nadu,Chennai,\N,CHENNAI ZONE XIII,12.989865,80.251308,4.66,,,,
80.23049,13.099436,47428,AYANAVARAM UHP,29,Solai Street,Chennai Primary School,Ayanvaram,600023,26749758,Primary Health Centre,Tamil Nadu,Chennai,\N,CHENNAI ZONE VIII,13.099436,80.23049,10.49,,,,
80.23192,13.109576,47429,AGARAM SOUTH  HP,9,Somaiah Raja Street,Coroporation Boys school,Agaram,600082,26700572,Primary Health Centre,Tamil Nadu,Chennai,\N,CHENNAI ZONE VI,13.109576,80.23192,12.2,,,,
80.223766,12.804408,47434,Padur,,,,,603103,044-27292567,Primary Health Centre,Tamil Nadu,Kancheepuram,Uthiramerur,Uthiramerur,12.804408,80.223766,8.08,,,,
80.192188,13.137093,47435,N.N.NAGAR UHP,1,Erikarai Street,Park Corporation School,Nesapakkam,600078,23712681,Primary Health Centre,Tamil Nadu,Chennai,\N,CHENNAI ZONE X,13.137093,80.192188,10.47,,,,
80.202305,13.057181,47436,CPWD  UHP,44115,Dasatharapuram Stret,Vadapalani Bus Stand,Dhasrathapuram,600093,23766343,Primary Health Centre,Tamil Nadu,Chennai,\N,CHENNAI ZONE X,13.057181,80.202305,12.18,,,,
80.192147,12.982774,47438,PALAVANTHANGAL  UHP,2,New colony 2nd Cross Street,Near B.M Hospital,Palavanthangal,600114,,Primary Health Centre,Tamil Nadu,Chennai,\N,CHENNAI ZONE XII,12.982774,80.192147,12.54,,,,
80.230131,13.060031,47439,PERIYAR NAGAR UHP,17/47,"Sheferfudeen Street ,Choolaimedu,Chennai-94",Near Choolaimedu Post office,Chollaimedu,600094,24802908,Primary Health Centre,Tamil Nadu,Chennai,\N,CHENNAI ZONE IX,13.060031,80.230131,12.94,,,,
80.229931,12.986281,47440,VELACHERY  UHP,2,"Sevana Nagar Gandhi Road,Velachery",Corporation Park,Velachery,600042,22434186,Primary Health Centre,Tamil Nadu,Chennai,\N,CHENNAI ZONE XIII,12.986281,80.229931,12.14,,,,
80.250435,13.116505,47441,PERAMBUR(EAST)  HP,100,Kamaraj Nagar 2nd Street,Near Eswari Kalyana Mandapam,Vysarpadi,600039,25588580,Primary Health Centre,Tamil Nadu,Chennai,\N,CHENNAI ZONE IV,13.116505,80.250435,9,,,,
80.241842,13.023523,47443,KOTTURPURAM  UHP,44188,Dhandayudhapani 2nd Street Kotturpuram,Kotturpuram Bridge Pillyar Koil Temple,Kotturpuram,600085,24475641,Primary Health Centre,Tamil Nadu,Chennai,\N,CHENNAI ZONE IV,13.023523,80.241842,7.77,,,,
80.242882,13.072459,47444,CHETPET UHP,1,Jagannathapuram 2nd Street,Corporation Middile School,Chetpet,600031,28362475,Primary Health Centre,Tamil Nadu,Chennai,\N,CHENNAI ZONE VIII,13.072459,80.242882,10.85,,,,
80.2401,12.9476,47448,OKKIYAMTHURAIPAKKAM,PHC Okkianturaipakkam,,,,600096,,Primary Health Centre,Tamil Nadu,Kancheepuram,Sholinganallur ,St. Thomas Mount CANTT,12.9476,80.2401,6.3875,,,,
80.222121,13.055125,47452,VADAPALANI UHP,1,Corporation colony,Vadapalani Eoc back side,Kodambakkam,600024,24830550,Primary Health Centre,Tamil Nadu,Chennai,\N,CHENNAI ZONE X,13.055125,80.222121,14.1,,,,
80.200147,13.100923,47453,VILLIWAKKAM  II UHP,36,Rajamangalam 1st Main Road.,Nathamuni theatre,Villivakkam,600049,26181020,Primary Health Centre,Tamil Nadu,Chennai,\N,CHENNAI ZONE VIII,13.100923,80.200147,12.16,,,,
80.235885,13.050474,47454,S.M.NAGAR UHP,,"Ramakamathupuram,R.K.Nagar Main Road","Community hall T.Nagar,",Ramakamathupuram,600017,044-28344313,Primary Health Centre,Tamil Nadu,Chennai,\N,CHENNAI ZONE IX,13.050474,80.235885,11.14,,,,
80.212282,13.037377,47455,FPAI  ASHOK NAGAR  UHP,138 B,"Kannigapuram 1st Street,",Sivan Park,K.K.Nagar,600078,,Primary Health Centre,Tamil Nadu,Chennai,\N,CHENNAI ZONE X,13.037377,80.212282,13.43,,,,
80.214888,13.028199,47457,SAIDAPET UHP,51,Jones Road,Panagal Maligai,Saidapet,600015,24810279,Primary Health Centre,Tamil Nadu,Chennai,\N,CHENNAI ZONE X,13.028199,80.214888,12.58,,,,
80.204801,13.029936,47460,SAIDAPET WEST UHP,1,"2nd Link Street,Raghava redy colony",Saidapet Manthoopu School Near Thiruvalluvar Street,Jafferkhanpet,600083,23712618,Primary Health Centre,Tamil Nadu,Chennai,\N,CHENNAI ZONE X,13.029936,80.204801,13.48,,,,
